OBJECT_NAME,OBJECT_ID,EPOCH,MEAN_MOTION,ECCENTRICITY,INCLINATION,RA_OF_ASC_NODE,ARG_OF_PERICENTER,MEAN_ANOMALY,EPHEMERIS_TYPE,CLASSIFICATION_TYPE,NORAD_CAT_ID,ELEMENT_SET_NO,REV_AT_EPOCH,BSTAR,MEAN_MOTION_DOT,MEAN_MOTION_DDOT
GSAT0215 (GALILEO 19),2017-079A,2026-06-16T10:17:47.154336,1.70474560,.00031193,55.0735,221.5277,263.4417,96.6201,0,U,43055,999,5297,0,.46E-6,0
GSAT0216 (GALILEO 20),2017-079B,2026-06-17T21:26:22.395264,1.70474666,.00043172,55.0732,221.4873,276.2784,83.7610,0,U,43056,999,5301,0,.34E-6,0
GSAT0217 (GALILEO 21),2017-079C,2026-06-15T04:20:58.191648,1.70474278,.0004444,55.0707,221.5599,284.3881,75.6642,0,U,43057,999,5295,0,.56E-6,0
GSAT0218 (GALILEO 22),2017-079D,2026-06-18T08:01:13.103616,1.70474134,.0006036,55.0717,221.4704,273.1723,86.8442,0,U,43058,999,5303,0,.31E-6,0
BEIDOU-3 M7 (C27),2018-003A,2026-06-17T21:17:59.275968,1.86227917,.0004854,54.3274,302.2910,94.3023,265.7447,0,U,43107,999,5736,0,-.76E-6,0
BEIDOU-3 M8 (C28),2018-003B,2026-06-18T21:44:52.178208,1.86230763,.00025608,54.3191,302.2370,260.9030,99.0620,0,U,43108,999,5739,0,-.81E-6,0
BEIDOU-3 M4 (C22),2018-018A,2026-06-18T06:36:21.724416,1.86230873,.0007707,56.6521,63.1126,19.0373,341.0335,0,U,43207,999,5676,0,-.55E-6,0
BEIDOU-3 M3 (C21),2018-018B,2026-06-18T08:12:05.696640,1.86230730,.0008713,56.6516,63.1145,341.3004,18.7097,0,U,43208,999,5676,0,-.56E-6,0
BEIDOU-3 M9 (C29),2018-029A,2026-06-16T09:52:51.223872,1.86227970,.00010054,54.1945,299.9756,155.7517,204.2422,0,U,43245,999,5588,0,-.69E-6,0
BEIDOU-3 M10 (C30),2018-029B,2026-06-16T21:11:33.518976,1.86229082,.00038,54.1918,299.9862,39.8570,320.1615,0,U,43246,999,5587,0,-.7E-6,0
IRNSS-1I,2018-035A,2026-06-15T20:09:20.172384,1.00272046,.00178117,28.7520,74.2167,181.5598,5.5147,0,U,43286,999,3006,0,.62E-6,0
COSMOS 2527 (756),2018-053A,2026-06-17T02:01:57.002592,2.13102067,.00069742,65.5776,73.9111,239.2690,120.6969,0,U,43508,999,6227,0,-.19E-6,0
BEIDOU-2 IGSO-7 (C16),2018-057A,2026-06-18T21:59:22.457760,1.00250965,.01052151,55.1945,163.0418,238.0859,305.6783,0,U,43539,999,2914,0,-.38E-6,0
GSAT0221 (GALILEO 25),2018-060A,2026-06-17T15:38:14.173152,1.70475954,.00025957,57.1692,341.7677,303.5364,56.4325,0,U,43564,999,4917,0,-.9E-6,0
GSAT0222 (GALILEO 26),2018-060B,2026-06-18T10:59:13.501824,1.70475697,.00019845,57.1720,341.7496,248.5728,111.3994,0,U,43565,999,4923,0,-.92E-6,0
GSAT0219 (GALILEO 23),2018-060C,2026-06-16T07:58:35.300928,1.70475853,.00020383,57.1726,341.8084,324.7693,35.2133,0,U,43566,999,4917,0,-.86E-6,0
GSAT0220 (GALILEO 24),2018-060D,2026-06-18T07:30:51.369984,1.70475651,.0002146,57.1716,341.7543,313.4062,46.5693,0,U,43567,999,4919,0,-.92E-6,0
BEIDOU-3 M5 (C23),2018-062A,2026-06-18T17:13:50.397888,1.86228577,.00056606,54.0850,182.2515,289.9886,69.9738,0,U,43581,999,5366,0,.56E-6,0
BEIDOU-3 M6 (C24),2018-062B,2026-06-18T13:57:14.980896,1.86227846,.00049553,54.0852,182.2454,8.3191,351.7130,0,U,43582,999,5366,0,.55E-6,0
BEIDOU-3 M12 (C26),2018-067A,2026-06-14T18:16:04.040832,1.86227714,.00077355,54.1799,181.1228,29.8475,330.2441,0,U,43602,999,5307,0,.93E-6,0
BEIDOU-3 M11 (C25),2018-067B,2026-06-18T15:43:03.362592,1.86227132,.00044953,54.1778,180.9540,12.7503,347.2821,0,U,43603,999,5317,0,.56E-6,0
BEIDOU-3 M13 (C32),2018-072A,2026-06-18T01:44:51.541728,1.86231145,.0007212,56.6251,62.6309,330.3756,29.6261,0,U,43622,999,5267,0,-.55E-6,0
BEIDOU-3 M14 (C33),2018-072B,2026-06-16T20:44:38.189760,1.86231280,.00061896,56.6260,62.6651,359.6599,0.3805,0,U,43623,999,5264,0,-.51E-6,0
BEIDOU-3 M16 (C35),2018-078A,2026-06-16T11:35:05.186688,1.86232208,.00072021,54.0905,300.0107,41.0576,318.9858,0,U,43647,999,5214,0,-.69E-6,0
BEIDOU-3 M15 (C34),2018-078B,2026-06-18T05:20:52.884384,1.86232335,.0004125,54.0846,299.9501,57.8841,302.1506,0,U,43648,999,5219,0,-.76E-6,0
BEIDOU-3 G1 (C59),2018-085A,2026-06-18T22:14:13.533792,1.00270301,.00080583,2.8733,97.3191,349.9693,313.3740,0,U,43683,999,2807,0,-.116E-5,0
COSMOS 2529 (757),2018-086A,2026-06-18T02:52:19.877664,2.13101950,.00120661,64.2948,192.5630,256.5324,103.3830,0,U,43687,999,5930,0,.57E-6,0
BEIDOU-3 M17 (C36),2018-093A,2026-06-17T10:07:59.822688,1.86228332,.0010176,54.1690,182.2880,292.0990,142.8043,0,U,43706,999,5154,0,.58E-6,0
BEIDOU-3 M18 (C37),2018-093B,2026-06-18T05:56:43.393344,1.86226419,.0007998,54.1696,182.2521,320.6332,39.3337,0,U,43707,999,5155,0,.55E-6,0
GPS BIII-1  (PRN 04),2018-109A,2026-06-18T04:13:10.164576,2.00561580,.00381742,55.6828,92.1474,197.9652,279.6252,0,U,43873,999,5509,0,-.14E-6,0
BEIDOU-3 IGSO-1 (C38),2019-023A,2026-06-18T14:37:15.269664,1.00291017,.0025544,58.6970,37.6341,225.7171,340.8879,0,U,44204,999,722,0,-.224E-5,0
